STARLINK-36732          
1 67813U 26032S   26074.50032060  .00182484  00000+0  11978-2 0  9997
2 67813  97.2840 261.3560 0001255  26.3458 333.7871 15.75200092  5706
STARLINK-36767          
1 67814U 26032T   26074.52007875  .00193163  00000+0  12648-2 0  9997
2 67814  97.2827 261.3282 0001791  70.7729 289.3730 15.75226337  5702
STARLINK-36797          
1 67815U 26032U   26074.51125716  .00214672  00000+0  14016-2 0  9992
2 67815  97.2839 261.3421 0002162  69.6693 290.4805 15.75232784  5700
STARLINK-36343          
1 67816U 26032V   26074.49149220  .00200181  00000+0  13096-2 0  9993
2 67816  97.2831 261.3674 0001321  70.9342 289.2066 15.75227701  5703
STARLINK-36756          
1 67817U 26032W   26074.50243474  .00146366  00000+0  96553-3 0  9996
2 67817  97.2839 261.3529 0000816  73.9716 286.1639 15.75188177  5690
STARLINK-36346          
1 67818U 26032X   26074.48725792  .00210659  00000+0  13769-2 0  9996
2 67818  97.2830 261.3741 0001527  35.2253 324.9113 15.75219993  5706
STARLINK-36788          
1 67819U 26032Y   26074.51337420  .00127444  00000+0  84196-3 0  9990
2 67819  97.2838 261.3381 0001939  72.8033 287.3444 15.75207358  5706
STARLINK-36353          
1 67820U 26032Z   26074.50949554  .00120693  00000+0  79725-3 0  9999
2 67820  97.2839 261.3430 0001417 117.7838 242.3571 15.75230989  5705
STARLINK-36644          
1 67821U 26033A   26074.58335648 -.01966169  00000+0 -22185-1 0  9997
2 67821  42.9992 235.7245 0001670 267.3599  66.4981 15.64874189  5613
STARLINK-36643          
1 67822U 26033B   26074.58335648 -.01911810  00000+0 -25802-1 0  9990
2 67822  42.9986 235.9058 0001353 263.6141 357.5168 15.60253946  5610
STARLINK-36646          
1 67823U 26033C   26074.58335648 -.01941376  00000+0 -23278-1 0  9996
2 67823  42.9993 235.7621 0001634 268.0591  50.4262 15.63314307  5619
STARLINK-36647          
1 67824U 26033D   26074.58335648 -.01944556  00000+0 -25117-1 0  9994
2 67824  42.9992 235.8304 0001649 267.2451  23.6618 15.61434880  5614
STARLINK-36648          
1 67825U 26033E   26074.58335648 -.01981545  00000+0 -16744-1 0  9990
2 67825  42.9995 235.4767 0001505 276.5357 156.5897 15.71857793  5614
STARLINK-35865          
1 67826U 26033F   26074.58335648 -.01970098  00000+0 -21822-1 0  9995
2 67826  42.9995 235.6533 0001755 273.2218  88.7093 15.65338498  5618
STARLINK-36289          
1 67827U 26033G   26074.58335648 -.01949123  00000+0 -25604-1 0  9993
2 67827  42.9993 235.8171 0001590 267.3996  28.7040 15.61013523  5612
STARLINK-36670          
1 67828U 26033H   26074.58335648 -.01941673  00000+0 -23683-1 0  9991
2 67828  42.9992 235.7251 0001636 268.8916  63.9463 15.62883984  5616
